[{"OBJECT_NAME":"STARLINK-2409","OBJECT_ID":"2021-018AP","EPOCH":"2026-03-09T22:07:37.289568","MEAN_MOTION":15.06394579,"ECCENTRICITY":0.00012415,"INCLINATION":53.056,"RA_OF_ASC_NODE":250.576,"ARG_OF_PERICENTER":89.3169,"MEAN_ANOMALY":270.7963,"EPHEMERIS_TYPE":0,"CLASSIFICATION_TYPE":"U","NORAD_CAT_ID":47824,"ELEMENT_SET_NO":999,"REV_AT_EPOCH":27662,"BSTAR":4.0010553e-5,"MEAN_MOTION_DOT":3.15e-6,"MEAN_MOTION_DDOT":0},{"OBJECT_NAME":"OBJECT C","OBJECT_ID":"2025-013C","EPOCH":"2026-03-09T23:45:12.010176","MEAN_MOTION":15.10546453,"ECCENTRICITY":0.00141064,"INCLINATION":97.6424,"RA_OF_ASC_NODE":238.1264,"ARG_OF_PERICENTER":358.7826,"MEAN_ANOMALY":1.3366,"EPHEMERIS_TYPE":0,"CLASSIFICATION_TYPE":"U","NORAD_CAT_ID":62731,"ELEMENT_SET_NO":999,"REV_AT_EPOCH":6235,"BSTAR":0.00030324361,"MEAN_MOTION_DOT":4.947e-5,"MEAN_MOTION_DDOT":0}]
